{
  "type": "FeatureCollection",
  "features": [
    {
      "type": "Feature",
      "properties": {
        "norad_id": 33822,
        "name": "COSMOS 2251 DEB",
        "group": "cosmos-2251-debris",
        "lat": -32.02298672716176,
        "lon": -169.82354632888698,
        "alt_km": 831.7256675775834,
        "timestamp": "2025-12-08T21:31:05.059129+00:00",
        "meta_object_name": "COSMOS 2251 DEB",
        "meta_object_id": "1993-036BP",
        "meta_epoch": "2025-12-08T01:52:47.203104",
        "meta_mean_motion": 14.13036225,
        "meta_eccentricity": 0.0153709,
        "meta_inclination": 74.0693,
        "meta_ra_of_asc_node": 201.9105,
        "meta_arg_of_pericenter": 249.3355,
        "meta_mean_anomaly": 234.7647,
        "meta_ephemeris_type": 0,
        "meta_classification_type": "U",
        "meta_norad_cat_id": 33822,
        "meta_element_set_no": 999,
        "meta_rev_at_epoch": 85988,
        "meta_bstar": 0.0016546481,
        "meta_mean_motion_dot": 3.43e-05,
        "meta_mean_motion_ddot": 0,
        "tle_line1": "1 33822U 93036BP  25342.07832411  .00003430  00000+0  16546-2 0  9994",
        "tle_line2": "2 33822  74.0693 201.9105 0153709 249.3355 234.7647 14.13036225859881"
      },
      "geometry": {
        "type": "Point",
        "coordinates": [
          -169.82354632888698,
          -32.02298672716176
        ]
      }
    },
    {
      "type": "Feature",
      "properties": {
        "norad_id": 33823,
        "name": "COSMOS 2251 DEB",
        "group": "cosmos-2251-debris",
        "lat": -15.406651535788434,
        "lon": 151.4739673830394,
        "alt_km": 828.3288687674558,
        "timestamp": "2025-12-08T21:31:05.059139+00:00",
        "meta_object_name": "COSMOS 2251 DEB",
        "meta_object_id": "1993-036BQ",
        "meta_epoch": "2025-12-08T13:17:22.119072",
        "meta_mean_motion": 13.98935654,
        "meta_eccentricity": 0.02092867,
        "meta_inclination": 73.8092,
        "meta_ra_of_asc_node": 156.6668,
        "meta_arg_of_pericenter": 282.5036,
        "meta_mean_anomaly": 133.4098,
        "meta_ephemeris_type": 0,
        "meta_classification_type": "U",
        "meta_norad_cat_id": 33823,
        "meta_element_set_no": 999,
        "meta_rev_at_epoch": 85551,
        "meta_bstar": 0.0013273987,
        "meta_mean_motion_dot": 2.285e-05,
        "meta_mean_motion_ddot": 0,
        "tle_line1": "1 33823U 93036BQ  25342.55372823  .00002285  00000+0  13274-2 0  9996",
        "tle_line2": "2 33823  73.8092 156.6668 0209286 282.5036 133.4098 13.98935654855516"
      },
      "geometry": {
        "type": "Point",
        "coordinates": [
          151.4739673830394,
          -15.406651535788434
        ]
      }
    },
    {
      "type": "Feature",
      "properties": {
        "norad_id": 33825,
        "name": "COSMOS 2251 DEB",
        "group": "cosmos-2251-debris",
        "lat": 72.63631628282086,
        "lon": 148.54855139393683,
        "alt_km": 657.7679021291333,
        "timestamp": "2025-12-08T21:31:05.059150+00:00",
        "meta_object_name": "COSMOS 2251 DEB",
        "meta_object_id": "1993-036BS",
        "meta_epoch": "2025-12-08T13:29:10.217184",
        "meta_mean_motion": 14.69708612,
        "meta_eccentricity": 0.00843296,
        "meta_inclination": 73.9851,
        "meta_ra_of_asc_node": 35.9146,
        "meta_arg_of_pericenter": 3.9987,
        "meta_mean_anomaly": 121.8448,
        "meta_ephemeris_type": 0,
        "meta_classification_type": "U",
        "meta_norad_cat_id": 33825,
        "meta_element_set_no": 999,
        "meta_rev_at_epoch": 88818,
        "meta_bstar": 0.0011359174,
        "meta_mean_motion_dot": 7.121e-05,
        "meta_mean_motion_ddot": 0,
        "tle_line1": "1 33825U 93036BS  25342.56192381  .00007121  00000+0  11359-2 0  9994",
        "tle_line2": "2 33825  73.9851  35.9146 0084329   3.9987 121.8448 14.69708612888181"
      },
      "geometry": {
        "type": "Point",
        "coordinates": [
          148.54855139393683,
          72.63631628282086
        ]
      }
    },
    {
      "type": "Feature",
      "properties": {
        "norad_id": 33826,
        "name": "COSMOS 2251 DEB",
        "group": "cosmos-2251-debris",
        "lat": -52.722659979351164,
        "lon": -100.8528439905409,
        "alt_km": 767.126203882076,
        "timestamp": "2025-12-08T21:31:05.059160+00:00",
        "meta_object_name": "COSMOS 2251 DEB",
        "meta_object_id": "1993-036BT",
        "meta_epoch": "2025-12-08T16:01:24.643776",
        "meta_mean_motion": 14.51664644,
        "meta_eccentricity": 0.00836528,
        "meta_inclination": 74.065,
        "meta_ra_of_asc_node": 57.5314,
        "meta_arg_of_pericenter": 103.1899,
        "meta_mean_anomaly": 15.9338,
        "meta_ephemeris_type": 0,
        "meta_classification_type": "U",
        "meta_norad_cat_id": 33826,
        "meta_element_set_no": 999,
        "meta_rev_at_epoch": 87710,
        "meta_bstar": 0.0017127163,
        "meta_mean_motion_dot": 7.169e-05,
        "meta_mean_motion_ddot": 0,
        "tle_line1": "1 33826U 93036BT  25342.66764634  .00007169  00000+0  17127-2 0  9993",
        "tle_line2": "2 33826  74.0650  57.5314 0083652 103.1899  15.9338 14.51664644877109"
      },
      "geometry": {
        "type": "Point",
        "coordinates": [
          -100.8528439905409,
          -52.722659979351164
        ]
      }
    },
    {
      "type": "Feature",
      "properties": {
        "norad_id": 33828,
        "name": "COSMOS 2251 DEB",
        "group": "cosmos-2251-debris",
        "lat": -50.38605537995728,
        "lon": 85.45470859858409,
        "alt_km": 749.1338910712993,
        "timestamp": "2025-12-08T21:31:05.059171+00:00",
        "meta_object_name": "COSMOS 2251 DEB",
        "meta_object_id": "1993-036BV",
        "meta_epoch": "2025-12-08T11:17:39.842592",
        "meta_mean_motion": 14.44312361,
        "meta_eccentricity": 0.00294079,
        "meta_inclination": 74.0471,
        "meta_ra_of_asc_node": 246.0284,
        "meta_arg_of_pericenter": 319.5903,
        "meta_mean_anomaly": 219.8909,
        "meta_ephemeris_type": 0,
        "meta_classification_type": "U",
        "meta_norad_cat_id": 33828,
        "meta_element_set_no": 999,
        "meta_rev_at_epoch": 88251,
        "meta_bstar": 0.00089040608,
        "meta_mean_motion_dot": 3.054e-05,
        "meta_mean_motion_ddot": 0,
        "tle_line1": "1 33828U 93036BV  25342.47060003  .00003054  00000+0  89041-3 0  9997",
        "tle_line2": "2 33828  74.0471 246.0284 0029407 319.5903 219.8909 14.44312361882518"
      },
      "geometry": {
        "type": "Point",
        "coordinates": [
          85.45470859858409,
          -50.38605537995728
        ]
      }
    },
    {
      "type": "Feature",
      "properties": {
        "norad_id": 33830,
        "name": "COSMOS 2251 DEB",
        "group": "cosmos-2251-debris",
        "lat": 18.037160562379846,
        "lon": -116.74940324093808,
        "alt_km": 611.5549952894307,
        "timestamp": "2025-12-08T21:31:05.059182+00:00",
        "meta_object_name": "COSMOS 2251 DEB",
        "meta_object_id": "1993-036BX",
        "meta_epoch": "2025-12-08T10:51:33.629184",
        "meta_mean_motion": 14.76814376,
        "meta_eccentricity": 0.00422656,
        "meta_inclination": 74.0324,
        "meta_ra_of_asc_node": 238.7709,
        "meta_arg_of_pericenter": 359.7349,
        "meta_mean_anomaly": 178.8296,
        "meta_ephemeris_type": 0,
        "meta_classification_type": "U",
        "meta_norad_cat_id": 33830,
        "meta_element_set_no": 999,
        "meta_rev_at_epoch": 89408,
        "meta_bstar": 0.0011804918,
        "meta_mean_motion_dot": 8.384e-05,
        "meta_mean_motion_ddot": 0,
        "tle_line1": "1 33830U 93036BX  25342.45247256  .00008384  00000+0  11805-2 0  9998",
        "tle_line2": "2 33830  74.0324 238.7709 0042265 359.7349 178.8296 14.76814376894081"
      },
      "geometry": {
        "type": "Point",
        "coordinates": [
          -116.74940324093808,
          18.037160562379846
        ]
      }
    },
    {
      "type": "Feature",
      "properties": {
        "norad_id": 33832,
        "name": "COSMOS 2251 DEB",
        "group": "cosmos-2251-debris",
        "lat": -61.66318142732849,
        "lon": -174.71104282851437,
        "alt_km": 685.4218414795741,
        "timestamp": "2025-12-08T21:31:05.059192+00:00",
        "meta_object_name": "COSMOS 2251 DEB",
        "meta_object_id": "1993-036BZ",
        "meta_epoch": "2025-12-08T02:48:05.865984",
        "meta_mean_motion": 14.6055874,
        "meta_eccentricity": 0.00252482,
        "meta_inclination": 74.0537,
        "meta_ra_of_asc_node": 218.7948,
        "meta_arg_of_pericenter": 250.8501,
        "meta_mean_anomaly": 263.9312,
        "meta_ephemeris_type": 0,
        "meta_classification_type": "U",
        "meta_norad_cat_id": 33832,
        "meta_element_set_no": 999,
        "meta_rev_at_epoch": 88357,
        "meta_bstar": 0.0016659264,
        "meta_mean_motion_dot": 8.109e-05,
        "meta_mean_motion_ddot": 0,
        "tle_line1": "1 33832U 93036BZ  25342.11673456  .00008109  00000+0  16659-2 0  9995",
        "tle_line2": "2 33832  74.0537 218.7948 0025248 250.8501 263.9312 14.60558740883575"
      },
      "geometry": {
        "type": "Point",
        "coordinates": [
          -174.71104282851437,
          -61.66318142732849
        ]
      }
    }
  ]
}